[{"OBJECT_NAME":"ONEWEB-0582","OBJECT_ID":"2022-166H","EPOCH":"2026-04-07T04:53:17.031840","MEAN_MOTION":13.21831622,"ECCENTRICITY":0.000169,"INCLINATION":87.9183,"RA_OF_ASC_NODE":258.1167,"ARG_OF_PERICENTER":112.502,"MEAN_ANOMALY":247.6293,"EPHEMERIS_TYPE":0,"CLASSIFICATION_TYPE":"U","NORAD_CAT_ID":54649,"ELEMENT_SET_NO":999,"REV_AT_EPOCH":16214,"BSTAR":0.00022354,"MEAN_MOTION_DOT":1.05e-06,"MEAN_MOTION_DDOT":0.0},{"OBJECT_NAME":"ONEWEB-0583","OBJECT_ID":"2022-166J","EPOCH":"2026-04-07T03:21:09.804384","MEAN_MOTION":13.21785455,"ECCENTRICITY":0.0001767,"INCLINATION":87.9183,"RA_OF_ASC_NODE":258.1527,"ARG_OF_PERICENTER":102.0569,"MEAN_ANOMALY":258.0763,"EPHEMERIS_TYPE":0,"CLASSIFICATION_TYPE":"U","NORAD_CAT_ID":54650,"ELEMENT_SET_NO":999,"REV_AT_EPOCH":16214,"BSTAR":-0.00011213,"MEAN_MOTION_DOT":-3.3e-07,"MEAN_MOTION_DDOT":0.0},{"OBJECT_NAME":"ONEWEB-0584","OBJECT_ID":"2022-166K","EPOCH":"2026-04-07T03:50:06.922176","MEAN_MOTION":13.21699204,"ECCENTRICITY":0.0001625,"INCLINATION":87.9184,"RA_OF_ASC_NODE":258.1358,"ARG_OF_PERICENTER":106.138,"MEAN_ANOMALY":253.9933,"EPHEMERIS_TYPE":0,"CLASSIFICATION_TYPE":"U","NORAD_CAT_ID":54651,"ELEMENT_SET_NO":999,"REV_AT_EPOCH":16213,"BSTAR":1.6275999999999998e-05,"MEAN_MOTION_DOT":2e-07,"MEAN_MOTION_DDOT":0.0},{"OBJECT_NAME":"ONEWEB-0585","OBJECT_ID":"2022-166L","EPOCH":"2026-04-07T04:24:22.773024","MEAN_MOTION":13.21916577,"ECCENTRICITY":0.0001768,"INCLINATION":87.9185,"RA_OF_ASC_NODE":258.1153,"ARG_OF_PERICENTER":92.2931,"MEAN_ANOMALY":267.8405,"EPHEMERIS_TYPE":0,"CLASSIFICATION_TYPE":"U","NORAD_CAT_ID":54652,"ELEMENT_SET_NO":999,"REV_AT_EPOCH":16214,"BSTAR":-0.0001289,"MEAN_MOTION_DOT":-4e-07,"MEAN_MOTION_DDOT":0.0},{"OBJECT_NAME":"ONEWEB-0586","OBJECT_ID":"2022-166M","EPOCH":"2026-04-07T04:43:40.569312","MEAN_MOTION":13.2186114,"ECCENTRICITY":0.0001788,"INCLINATION":87.9183,"RA_OF_ASC_NODE":258.1388,"ARG_OF_PERICENTER":103.8197,"MEAN_ANOMALY":256.3136,"EPHEMERIS_TYPE":0,"CLASSIFICATION_TYPE":"U","NORAD_CAT_ID":54653,"ELEMENT_SET_NO":999,"REV_AT_EPOCH":16214,"BSTAR":-0.00014179,"MEAN_MOTION_DOT":-4.6e-07,"MEAN_MOTION_DDOT":0.0},{"OBJECT_NAME":"ONEWEB-0587","OBJECT_ID":"2022-166N","EPOCH":"2026-04-07T04:58:07.504320","MEAN_MOTION":13.21820758,"ECCENTRICITY":0.0001924,"INCLINATION":87.9194,"RA_OF_ASC_NODE":258.1035,"ARG_OF_PERICENTER":86.9653,"MEAN_ANOMALY":273.1701,"EPHEMERIS_TYPE":0,"CLASSIFICATION_TYPE":"U","NORAD_CAT_ID":54654,"ELEMENT_SET_NO":999,"REV_AT_EPOCH":16230,"BSTAR":-4.6838999999999997e-05,"MEAN_MOTION_DOT":-6e-08,"MEAN_MOTION_DDOT":0.0},{"OBJECT_NAME":"ONEWEB-0589","OBJECT_ID":"2022-166P","EPOCH":"2026-04-07T04:38:49.531776","MEAN_MOTION":13.21874101,"ECCENTRICITY":0.0001527,"INCLINATION":87.9181,"RA_OF_ASC_NODE":258.1275,"ARG_OF_PERICENTER":127.7698,"MEAN_ANOMALY":232.3574,"EPHEMERIS_TYPE":0,"CLASSIFICATION_TYPE":"U","NORAD_CAT_ID":54655,"ELEMENT_SET_NO":999,"REV_AT_EPOCH":16216,"BSTAR":-0.00016194,"MEAN_MOTION_DOT":-5.4e-07,"MEAN_MOTION_DDOT":0.0},{"OBJECT_NAME":"ONEWEB-0590","OBJECT_ID":"2022-166Q","EPOCH":"2026-04-07T03:25:47.428320","MEAN_MOTION":13.21768649,"ECCENTRICITY":0.0001372,"INCLINATION":87.919,"RA_OF_ASC_NODE":258.1209,"ARG_OF_PERICENTER":90.3923,"MEAN_ANOMALY":269.7368,"EPHEMERIS_TYPE":0,"CLASSIFICATION_TYPE":"U","NORAD_CAT_ID":54656,"ELEMENT_SET_NO":999,"REV_AT_EPOCH":16214,"BSTAR":2.3683000000000003e-05,"MEAN_MOTION_DOT":2.3e-07,"MEAN_MOTION_DDOT":0.0},{"OBJECT_NAME":"ONEWEB-0591","OBJECT_ID":"2022-166R","EPOCH":"2026-04-07T03:42:52.121088","MEAN_MOTION":13.21720728,"ECCENTRICITY":0.0001699,"INCLINATION":87.9184,"RA_OF_ASC_NODE":258.1381,"ARG_OF_PERICENTER":97.173,"MEAN_ANOMALY":262.9598,"EPHEMERIS_TYPE":0,"CLASSIFICATION_TYPE":"U","NORAD_CAT_ID":54657,"ELEMENT_SET_NO":999,"REV_AT_EPOCH":16217,"BSTAR":0.00026428000000000004,"MEAN_MOTION_DOT":1.22e-06,"MEAN_MOTION_DDOT":0.0},{"OBJECT_NAME":"ONEWEB-0592","OBJECT_ID":"2022-166S","EPOCH":"2026-04-07T03:47:41.211168","MEAN_MOTION":13.21705749,"ECCENTRICITY":0.0001712,"INCLINATION":87.9193,"RA_OF_ASC_NODE":258.1101,"ARG_OF_PERICENTER":97.1786,"MEAN_ANOMALY":262.9542,"EPHEMERIS_TYPE":0,"CLASSIFICATION_TYPE":"U","NORAD_CAT_ID":54658,"ELEMENT_SET_NO":999,"REV_AT_EPOCH":16205,"BSTAR":0.00020085,"MEAN_MOTION_DOT":9.6e-07,"MEAN_MOTION_DDOT":0.0},{"OBJECT_NAME":"ONEWEB-0593","OBJECT_ID":"2022-166T","EPOCH":"2026-04-07T04:19:33.199968","MEAN_MOTION":13.21930611,"ECCENTRICITY":0.0001811,"INCLINATION":87.9184,"RA_OF_ASC_NODE":258.1223,"ARG_OF_PERICENTER":103.2104,"MEAN_ANOMALY":256.9233,"EPHEMERIS_TYPE":0,"CLASSIFICATION_TYPE":"U","NORAD_CAT_ID":54659,"ELEMENT_SET_NO":999,"REV_AT_EPOCH":16216,"BSTAR":7.467300000000001e-05,"MEAN_MOTION_DOT":4.4e-07,"MEAN_MOTION_DDOT":0.0},{"OBJECT_NAME":"ONEWEB-0594","OBJECT_ID":"2022-166U","EPOCH":"2026-04-07T04:48:27.673056","MEAN_MOTION":13.21846833,"ECCENTRICITY":0.000182,"INCLINATION":87.9182,"RA_OF_ASC_NODE":258.136,"ARG_OF_PERICENTER":95.2381,"MEAN_ANOMALY":264.8961,"EPHEMERIS_TYPE":0,"CLASSIFICATION_TYPE":"U","NORAD_CAT_ID":54660,"ELEMENT_SET_NO":999,"REV_AT_EPOCH":16218,"BSTAR":-1.8491e-05,"MEAN_MOTION_DOT":5e-08,"MEAN_MOTION_DDOT":0.0},{"OBJECT_NAME":"ONEWEB-0595","OBJECT_ID":"2022-166V","EPOCH":"2026-04-06T22:47:45.161664","MEAN_MOTION":13.21943788,"ECCENTRICITY":0.0001705,"INCLINATION":87.9192,"RA_OF_ASC_NODE":258.1607,"ARG_OF_PERICENTER":90.9025,"MEAN_ANOMALY":269.2305,"EPHEMERIS_TYPE":0,"CLASSIFICATION_TYPE":"U","NORAD_CAT_ID":54661,"ELEMENT_SET_NO":999,"REV_AT_EPOCH":16212,"BSTAR":-6.081e-05,"MEAN_MOTION_DOT":-1.2e-07,"MEAN_MOTION_DDOT":0.0},{"OBJECT_NAME":"ONEWEB-0596","OBJECT_ID":"2022-166W","EPOCH":"2026-04-07T03:38:03.016320","MEAN_MOTION":13.21734591,"ECCENTRICITY":0.0001751,"INCLINATION":87.9184,"RA_OF_ASC_NODE":258.1367,"ARG_OF_PERICENTER":94.1674,"MEAN_ANOMALY":265.966,"EPHEMERIS_TYPE":0,"CLASSIFICATION_TYPE":"U","NORAD_CAT_ID":54662,"ELEMENT_SET_NO":999,"REV_AT_EPOCH":16215,"BSTAR":-0.00018009,"MEAN_MOTION_DOT":-6.1e-07,"MEAN_MOTION_DDOT":0.0},{"OBJECT_NAME":"ONEWEB-0597","OBJECT_ID":"2022-166X","EPOCH":"2026-04-07T05:00:31.190976","MEAN_MOTION":13.2181017,"ECCENTRICITY":0.0001718,"INCLINATION":87.9182,"RA_OF_ASC_NODE":258.1294,"ARG_OF_PERICENTER":103.2842,"MEAN_ANOMALY":256.8484,"EPHEMERIS_TYPE":0,"CLASSIFICATION_TYPE":"U","NORAD_CAT_ID":54663,"ELEMENT_SET_NO":999,"REV_AT_EPOCH":16216,"BSTAR":4.5328000000000004e-05,"MEAN_MOTION_DOT":3.2e-07,"MEAN_MOTION_DDOT":0.0},{"OBJECT_NAME":"ONEWEB-0600","OBJECT_ID":"2022-166Y","EPOCH":"2026-04-07T04:34:01.843968","MEAN_MOTION":13.21889135,"ECCENTRICITY":0.0001967,"INCLINATION":87.9185,"RA_OF_ASC_NODE":258.1243,"ARG_OF_PERICENTER":101.462,"MEAN_ANOMALY":258.6735,"EPHEMERIS_TYPE":0,"CLASSIFICATION_TYPE":"U","NORAD_CAT_ID":54664,"ELEMENT_SET_NO":999,"REV_AT_EPOCH":16213,"BSTAR":-3.1169000000000006e-05,"MEAN_MOTION_DOT":0.0,"MEAN_MOTION_DDOT":0.0}]