ONEWEB-0582             
1 54649U 22166H   26097.20366935  .00000105  00000+0  22354-3 0  9997
2 54649  87.9183 258.1167 0001690 112.5020 247.6293 13.21831622162149
ONEWEB-0583             
1 54650U 22166J   26097.13969681 -.00000033  00000+0 -11213-3 0  9992
2 54650  87.9183 258.1527 0001767 102.0569 258.0763 13.21785455162148
ONEWEB-0584             
1 54651U 22166K   26097.15980234  .00000020  00000+0  16276-4 0  9991
2 54651  87.9184 258.1358 0001625 106.1380 253.9933 13.21699204162139
ONEWEB-0585             
1 54652U 22166L   26097.18359691 -.00000040  00000+0 -12890-3 0  9993
2 54652  87.9185 258.1153 0001768  92.2931 267.8405 13.21916577162143
ONEWEB-0586             
1 54653U 22166M   26097.19699733 -.00000046  00000+0 -14179-3 0  9997
2 54653  87.9183 258.1388 0001788 103.8197 256.3136 13.21861140162146
ONEWEB-0587             
1 54654U 22166N   26097.20703130 -.00000006  00000+0 -46839-4 0  9992
2 54654  87.9194 258.1035 0001924  86.9653 273.1701 13.21820758162301
ONEWEB-0589             
1 54655U 22166P   26097.19362884 -.00000054  00000+0 -16194-3 0  9991
2 54655  87.9181 258.1275 0001527 127.7698 232.3574 13.21874101162166
ONEWEB-0590             
1 54656U 22166Q   26097.14291005  .00000023  00000+0  23683-4 0  9999
2 54656  87.9190 258.1209 0001372  90.3923 269.7368 13.21768649162140
ONEWEB-0591             
1 54657U 22166R   26097.15476992  .00000122  00000+0  26428-3 0  9990
2 54657  87.9184 258.1381 0001699  97.1730 262.9598 13.21720728162177
ONEWEB-0592             
1 54658U 22166S   26097.15811587  .00000096  00000+0  20085-3 0  9997
2 54658  87.9193 258.1101 0001712  97.1786 262.9542 13.21705749162057
ONEWEB-0593             
1 54659U 22166T   26097.18024537  .00000044  00000+0  74673-4 0  9998
2 54659  87.9184 258.1223 0001811 103.2104 256.9233 13.21930611162166
ONEWEB-0594             
1 54660U 22166U   26097.20032029  .00000005  00000+0 -18491-4 0  9992
2 54660  87.9182 258.1360 0001820  95.2381 264.8961 13.21846833162185
ONEWEB-0595             
1 54661U 22166V   26096.94982826 -.00000012  00000+0 -60810-4 0  9993
2 54661  87.9192 258.1607 0001705  90.9025 269.2305 13.21943788162122
ONEWEB-0596             
1 54662U 22166W   26097.15142380 -.00000061  00000+0 -18009-3 0  9997
2 54662  87.9184 258.1367 0001751  94.1674 265.9660 13.21734591162154
ONEWEB-0597             
1 54663U 22166X   26097.20869434  .00000032  00000+0  45328-4 0  9991
2 54663  87.9182 258.1294 0001718 103.2842 256.8484 13.21810170162166
ONEWEB-0600             
1 54664U 22166Y   26097.19029912  .00000000  00000+0 -31169-4 0  9993
2 54664  87.9185 258.1243 0001967 101.4620 258.6735 13.21889135162137
